[{"OBJECT_NAME":"SENTINEL-1D","OBJECT_ID":"2025-251A","EPOCH":"2026-03-09T22:39:29.854656","MEAN_MOTION":14.59197847,"ECCENTRICITY":0.00012838,"INCLINATION":98.1825,"RA_OF_ASC_NODE":77.7074,"ARG_OF_PERICENTER":89.3991,"MEAN_ANOMALY":270.7355,"EPHEMERIS_TYPE":0,"CLASSIFICATION_TYPE":"U","NORAD_CAT_ID":66315,"ELEMENT_SET_NO":999,"REV_AT_EPOCH":1825,"BSTAR":3.3692424e-5,"MEAN_MOTION_DOT":1.13e-6,"MEAN_MOTION_DDOT":0},{"OBJECT_NAME":"METEOR 2-7 DEB","OBJECT_ID":"1981-043R","EPOCH":"2026-03-04T00:16:11.155008","MEAN_MOTION":14.54327567,"ECCENTRICITY":0.00274278,"INCLINATION":81.2515,"RA_OF_ASC_NODE":77.7859,"ARG_OF_PERICENTER":106.1195,"MEAN_ANOMALY":284.5374,"EPHEMERIS_TYPE":0,"CLASSIFICATION_TYPE":"U","NORAD_CAT_ID":36878,"ELEMENT_SET_NO":999,"REV_AT_EPOCH":65591,"BSTAR":0.0022665673,"MEAN_MOTION_DOT":9.688e-5,"MEAN_MOTION_DDOT":0}]
